     2.100          NAVIGATION                              RINEX VERSION / TYPE
fic2rin                                 12/10/2012 00:25:18 PGM / RUN BY / DATE
                                                            END OF HEADER
29 12 12  9 12  0  0.0  .385609921068D-03  .397903932026D-11  .000000000000D+00
     .800000000000D+01  .168750000000D+01  .496770692493D-08 -.325473389227D+00
     .214204192162D-06  .176366127562D-02  .596232712269D-05  .515373067284D+04
     .432000000000D+05  .875443220139D-07  .543827236816D+00  .130385160446D-07
     .964807336715D+00  .267781250000D+03 -.110651969757D+01 -.833749014707D-08
     .267153985179D-09  .100000000000D+01  .171800000000D+04  .000000000000D+00
     .240000000000D+01  .000000000000D+00 -.931322574615D-08  .800000000000D+01
     .360060000000D+05  .400000000000D+01
30 12 12  9 12  0  0.0 -.290222465992D-03  .135287336889D-10  .000000000000D+00
     .280000000000D+02 -.364062500000D+02  .427196365872D-08  .298776561504D+01
    -.208243727684D-05  .109230339294D-01  .111535191536D-04  .515375513077D+04
     .432000000000D+05  .109896063805D-06 -.650205030712D+00  .149011611938D-07
     .962346209651D+00  .162250000000D+03  .161644548879D+01 -.770246369567D-08
     .335371112410D-09  .100000000000D+01  .171800000000D+04  .000000000000D+00
     .685000000000D+01  .000000000000D+00 -.465661287308D-08  .280000000000D+02
     .360060000000D+05  .400000000000D+01
31 12 12  9 12  0  0.0  .291296280921D-03  .204636307899D-11  .000000000000D+00
     .111000000000D+03 -.849375000000D+02  .412052877942D-08  .278071885439D+00
    -.450946390629D-05  .806267315056D-02  .655278563499D-05  .515378265953D+04
     .432000000000D+05 -.186264514923D-07 -.157517076199D+01 -.894069671631D-07
     .980607935994D+00  .260281250000D+03 -.837567381575D+00 -.815176812529D-08
    -.199651173416D-09  .100000000000D+01  .171800000000D+04  .000000000000D+00
     .240000000000D+01  .000000000000D+00 -.135041773319D-07  .111000000000D+03
     .360060000000D+05  .400000000000D+01
32 12 12  9 12  0  0.0 -.515310559422D-03 -.352429196937D-11  .000000000000D+00
     .860000000000D+02  .106500000000D+03  .461697802995D-08  .905203116818D+00
     .543147325516D-05  .117389785592D-01  .956840813160D-05  .515379978561D+04
     .432000000000D+05  .350177288055D-06  .267883324157D+01  .316649675369D-07
     .950534535933D+00  .186093750000D+03 -.438828462647D+00 -.813819613139D-08
     .214294640518D-11  .100000000000D+01  .171800000000D+04  .000000000000D+00
     .240000000000D+01  .000000000000D+00 -.325962901115D-08  .860000000000D+02
     .360060000000D+05  .400000000000D+01
22 12 12  9 11 59 44.0  .152986962348D-03  .909494701773D-12  .000000000000D+00
     .310000000000D+02  .981562500000D+02  .499092217766D-08 -.240529760031D+01
     .503659248352D-05  .615295080934D-02  .100713223219D-04  .515367204857D+04
     .431840000000D+05 -.186264514923D-08  .259912366160D+01 -.726431608200D-07
     .926268461291D+00  .168531250000D+03 -.201670114070D+01 -.809176562595D-08
    -.692886004340D-10  .100000000000D+01  .171800000000D+04  .000000000000D+00
     .240000000000D+01  .000000000000D+00 -.172294676304D-07  .310000000000D+02
     .394860000000D+05  .400000000000D+01
22 12 12  9 13 59 44.0  .152993947268D-03  .909494701773D-12  .000000000000D+00
     .320000000000D+02  .822500000000D+02  .503878131404D-08 -.135478572726D+01
     .420212745667D-05  .615204509813D-02  .102166086435D-04  .515367618179D+04
     .503840000000D+05  .121071934700D-06  .259906572419D+01  .122934579849D-06
     .926266909135D+00  .165718750000D+03 -.201702967407D+01 -.826963017758D-08
    -.192508018732D-09  .100000000000D+01  .171800000000D+04  .000000000000D+00
     .240000000000D+01  .000000000000D+00 -.172294676304D-07  .320000000000D+02
     .432060000000D+05  .400000000000D+01
 1 12 12  9 14  0  0.0  .286599621177D-03  .204636307899D-11  .000000000000D+00
     .380000000000D+02 -.199687500000D+02  .481020036415D-08  .173054834888D+01
    -.100955367088D-05  .148134562187D-02  .889971852303D-05  .515370740700D+04
     .504000000000D+05 -.167638063431D-07  .154345472436D+01  .104308128357D-06
     .959658284934D+00  .206937500000D+03  .515154810494D+00 -.806819321549D-08
    -.468590947265D-09  .100000000000D+01  .171800000000D+04  .000000000000D+00
     .240000000000D+01  .000000000000D+00  .838190317154D-08  .380000000000D+02
     .432060000000D+05  .400000000000D+01
 2 12 12  9 14  0  0.0  .411170534790D-03  .102318153949D-11  .000000000000D+00
     .350000000000D+02 -.376875000000D+02  .520235955630D-08  .272347750466D+01
    -.205449759960D-05  .117326190230D-01  .917911529541D-05  .515356937981D+04
     .504000000000D+05 -.128522515297D-06  .152548797790D+01 -.189989805222D-06
     .938179480313D+00  .190156250000D+03 -.270872490186D+01 -.816391148825D-08
    -.540736809573D-09  .100000000000D+01  .171800000000D+04  .000000000000D+00
     .240000000000D+01  .000000000000D+00 -.176951289177D-07  .350000000000D+02
     .432060000000D+05  .400000000000D+01
 3 12 12  9 14  0  0.0  .139359384775D-03  .511590769747D-11  .000000000000D+00
     .630000000000D+02  .134687500000D+02  .548594279725D-08  .290354777212D+01
     .530853867531D-06  .158750700066D-01  .592693686485D-05  .515375615501D+04
     .504000000000D+05  .150874257088D-06  .358260018099D+00 -.230967998505D-06
     .933049437689D+00  .248062500000D+03  .125844263414D+01 -.827820196320D-08
     .358943522867D-09  .100000000000D+01  .171800000000D+04  .000000000000D+00
     .340000000000D+01  .000000000000D+00 -.465661287308D-08  .630000000000D+02
     .432060000000D+05  .400000000000D+01
 4 12 12  9 14  0  0.0  .701355747879D-04  .111413100967D-10  .000000000000D+00
     .600000000000D+01 -.273125000000D+02  .535058001599D-08 -.265491480454D+00
    -.131502747536D-05  .104228619020D-01  .880472362041D-05  .515370186615D+04
     .504000000000D+05  .111758708954D-07  .154213351770D+01  .968575477600D-07
     .937226393573D+00  .196062500000D+03  .941645721335D+00 -.854035574010D-08
    -.556808907612D-09  .100000000000D+01  .171800000000D+04  .000000000000D+00
     .240000000000D+01  .000000000000D+00 -.651925802231D-08  .600000000000D+01
     .432060000000D+05  .400000000000D+01
 5 12 12  9 14  0  0.0 -.371741130948D-03 -.227373675443D-11  .000000000000D+00
     .330000000000D+02  .904687500000D+02  .450268755501D-08 -.147111097057D+01
     .466778874397D-05  .314533174969D-02  .114850699902D-04  .515380941200D+04
     .504000000000D+05  .223517417908D-07  .258990253346D+01 -.633299350739D-07
     .949887200535D+00  .152156250000D+03  .290050946243D+00 -.801390523989D-08
    -.575023952056D-10  .100000000000D+01  .171800000000D+04  .000000000000D+00
     .240000000000D+01  .000000000000D+00 -.102445483208D-07  .330000000000D+02
     .432060000000D+05  .400000000000D+01
 6 12 12  9 14  0  0.0  .430166255683D-03 -.128466126625D-10  .000000000000D+00
     .420000000000D+02  .102812500000D+02  .546701343734D-08 -.148077655809D+01
     .393018126488D-06  .746619107667D-02  .616721808910D-05  .515367858887D+04
     .504000000000D+05 -.204890966415D-07  .436403554508D+00 -.145286321640D-06
     .939734358885D+00  .251625000000D+03 -.406851763740D+00 -.857535719805D-08
     .440018328530D-09  .100000000000D+01  .171800000000D+04  .000000000000D+00
     .240000000000D+01  .000000000000D+00 -.512227416039D-08  .420000000000D+02
     .432060000000D+05  .400000000000D+01
 7 12 12  9 14  0  0.0  .155057758093D-03  .443378667114D-11  .000000000000D+00
     .210000000000D+02 -.975937500000D+02  .415445876417D-08  .135249905025D+01
    -.501051545143D-05  .605860655196D-02  .662729144096D-05  .515371747971D+04
     .504000000000D+05 -.316649675369D-07 -.157901602461D+01  .104308128357D-06
     .975579953850D+00  .259656250000D+03 -.292683864655D+01 -.809640867649D-08
    -.338228374284D-09  .100000000000D+01  .171800000000D+04  .000000000000D+00
     .240000000000D+01  .000000000000D+00 -.111758708954D-07  .210000000000D+02
     .432060000000D+05  .400000000000D+01
 8 12 12  9 14  0  0.0  .334251672029D-05  .227373675443D-12  .000000000000D+00
     .310000000000D+02 -.988437500000D+02  .360979321952D-08  .746277732686D+00
    -.504031777382D-05  .127386216773D-01  .738166272640D-05  .515362589645D+04
     .504000000000D+05  .726431608200D-07 -.149140538501D+01  .298023223877D-06
     .998057422423D+00  .256812500000D+03 -.289225910478D+01 -.785354141724D-08
    -.315013121561D-09  .100000000000D+01  .171800000000D+04  .000000000000D+00
     .240000000000D+01  .000000000000D+00 -.419095158577D-08  .310000000000D+02
     .432060000000D+05  .400000000000D+01
 9 12 12  9 14  0  0.0  .205418094993D-03  .272848410532D-11  .000000000000D+00
     .140000000000D+02 -.101750000000D+03  .403731102735D-08  .971108072218D+00
    -.551715493202D-05  .170541715343D-01  .572018325329D-05  .515284774208D+04
     .504000000000D+05 -.152736902237D-06 -.160337827587D+01 -.244006514549D-06
     .984254036943D+00  .285250000000D+03  .163370601448D+01 -.831748931396D-08
    -.286797660559D-09  .100000000000D+01  .171800000000D+04  .000000000000D+00
     .240000000000D+01  .000000000000D+00 -.558793544769D-08  .140000000000D+02
     .432060000000D+05  .400000000000D+01
10 12 12  9 14  0  0.0 -.615213066339D-04 -.147792889038D-11  .000000000000D+00
     .109000000000D+03  .106218750000D+03  .469519557374D-08 -.113882237559D+01
     .550225377083D-05  .121122396085D-01  .108405947685D-04  .515374852180D+04
     .504000000000D+05  .320374965668D-06  .261031923469D+01  .130385160446D-06
     .944753897066D+00  .161281250000D+03  .779146856971D+00 -.813569602725D-08
    -.935753263594D-10  .100000000000D+01  .171800000000D+04  .000000000000D+00
     .240000000000D+01  .000000000000D+00 -.279396772385D-08  .109000000000D+03
     .432060000000D+05  .400000000000D+01
